{
  "type": "FeatureCollection",
  "generator": "overpass-turbo",
  "copyright": "The data included in this document is from www.openstreetmap.org. The data is made available under ODbL.",
  "timestamp": "2026-02-20T07:48:26Z",
  "features": [
    {
      "type": "Feature",
      "properties": {
        "@id": "way/4572171",
        "bicycle": "yes",
        "bridge": "yes",
        "foot": "permissive",
        "highway": "cycleway",
        "horse": "no",
        "layer": "1",
        "motor_vehicle": "no",
        "name": "Passerelle de Bondy",
        "oneway": "no",
        "smoothness": "good",
        "surface": "asphalt"
      },
      "geometry": {
        "type": "LineString",
        "coordinates": [
          [
            2.473652,
            48.9060548
          ],
          [
            2.4729755,
            48.9059103
          ]
        ]
      },
      "id": "way/4572171"
    },
    {
      "type": "Feature",
      "properties": {
        "@id": "way/10292205",
        "bicycle": "yes",
        "bridge": "yes",
        "foot": "permissive",
        "highway": "cycleway",
        "horse": "no",
        "layer": "1",
        "motor_vehicle": "no",
        "name": "Passerelle de Bondy",
        "oneway": "no",
        "segregated": "no",
        "smoothness": "good",
        "surface": "asphalt"
      },
      "geometry": {
        "type": "LineString",
        "coordinates": [
          [
            2.4740624,
            48.9058009
          ],
          [
            2.4739874,
            48.9058573
          ],
          [
            2.4736809,
            48.9060497
          ],
          [
            2.473652,
            48.9060548
          ]
        ]
      },
      "id": "way/10292205"
    },
    {
      "type": "Feature",
      "properties": {
        "@id": "way/30085200",
        "access": "no",
        "bicycle": "designated",
        "bus": "yes",
        "highway": "service",
        "oneway": "yes"
      },
      "geometry": {
        "type": "LineString",
        "coordinates": [
          [
            2.475849,
            48.9037776
          ],
          [
            2.47569,
            48.9038226
          ],
          [
            2.4756373,
            48.9038366
          ],
          [
            2.4755254,
            48.9038564
          ],
          [
            2.4739669,
            48.9041629
          ],
          [
            2.4739107,
            48.9041735
          ],
          [
            2.4737031,
            48.9042128
          ],
          [
            2.4734498,
            48.9042632
          ],
          [
            2.4734118,
            48.9042707
          ],
          [
            2.4733266,
            48.9042879
          ],
          [
            2.473161,
            48.9043174
          ],
          [
            2.4730221,
            48.904337
          ]
        ]
      },
      "id": "way/30085200"
    },
    {
      "type": "Feature",
      "properties": {
        "@id": "way/32468349",
        "bicycle": "designated",
        "foot": "designated",
        "highway": "footway",
        "name": "Passage des Deux-Villes",
        "segregated": "no",
        "surface": "asphalt"
      },
      "geometry": {
        "type": "LineString",
        "coordinates": [
          [
            2.4757366,
            48.9140698
          ],
          [
            2.4765627,
            48.9140438
          ],
          [
            2.4769444,
            48.9140009
          ]
        ]
      },
      "id": "way/32468349"
    },
    {
      "type": "Feature",
      "properties": {
        "@id": "way/35284730",
        "bicycle": "designated",
        "foot": "permissive",
        "highway": "cycleway",
        "horse": "no",
        "motor_vehicle": "no",
        "name": "Piste cyclable de l'Ourcq",
        "oneway": "no",
        "smoothness": "good",
        "surface": "asphalt"
      },
      "geometry": {
        "type": "LineString",
        "coordinates": [
          [
            2.4729755,
            48.9059103
          ],
          [
            2.4728049,
            48.9058663
          ],
          [
            2.4721947,
            48.9057058
          ],
          [
            2.4714109,
            48.9055569
          ],
          [
            2.4711104,
            48.9054938
          ],
          [
            2.4702262,
            48.9053166
          ]
        ]
      },
      "id": "way/35284730"
    },
    {
      "type": "Feature",
      "properties": {
        "@id": "way/35284731",
        "bicycle": "yes",
        "bridge": "yes",
        "foot": "permissive",
        "highway": "cycleway",
        "horse": "no",
        "layer": "1",
        "motor_vehicle": "no",
        "name": "Passerelle de Bondy",
        "oneway": "no",
        "smoothness": "good",
        "surface": "asphalt"
      },
      "geometry": {
        "type": "LineString",
        "coordinates": [
          [
            2.4750465,
            48.9060079
          ],
          [
            2.4748207,
            48.9059475
          ],
          [
            2.4740924,
            48.9057965
          ],
          [
            2.4740624,
            48.9058009
          ]
        ]
      },
      "id": "way/35284731"
    },
    {
      "type": "Feature",
      "properties": {
        "@id": "way/51353022",
        "bicycle": "designated",
        "foot": "designated",
        "highway": "footway",
        "layer": "-1",
        "name": "Passage des Deux-Villes",
        "tunnel": "yes"
      },
      "geometry": {
        "type": "LineString",
        "coordinates": [
          [
            2.4769444,
            48.9140009
          ],
          [
            2.4774513,
            48.9139327
          ]
        ]
      },
      "id": "way/51353022"
    },
    {
      "type": "Feature",
      "properties": {
        "@id": "way/51353023",
        "bicycle": "designated",
        "foot": "designated",
        "highway": "footway",
        "name": "Passage des Deux-Villes"
      },
      "geometry": {
        "type": "LineString",
        "coordinates": [
          [
            2.4774513,
            48.9139327
          ],
          [
            2.4775082,
            48.9139287
          ],
          [
            2.4775339,
            48.9139312
          ],
          [
            2.4775618,
            48.913934
          ],
          [
            2.4776369,
            48.9139543
          ],
          [
            2.4777147,
            48.9139569
          ],
          [
            2.4777898,
            48.9139508
          ],
          [
            2.4778743,
            48.9139243
          ],
          [
            2.4779387,
            48.9138864
          ],
          [
            2.4779816,
            48.9138529
          ],
          [
            2.4780487,
            48.9138168
          ],
          [
            2.4781036,
            48.9137957
          ],
          [
            2.4782015,
            48.913786
          ],
          [
            2.4783464,
            48.9137675
          ],
          [
            2.4785739,
            48.9137341
          ],
          [
            2.4786287,
            48.913726
          ]
        ]
      },
      "id": "way/51353023"
    },
    {
      "type": "Feature",
      "properties": {
        "@id": "way/109578741",
        "bicycle": "designated",
        "foot": "yes",
        "highway": "cycleway",
        "oneway": "no",
        "segregated": "yes",
        "source": "BDOrtho IGN"
      },
      "geometry": {
        "type": "LineString",
        "coordinates": [
          [
            2.4815558,
            48.8998319
          ],
          [
            2.4815151,
            48.8997643
          ],
          [
            2.4814908,
            48.8997136
          ],
          [
            2.4811369,
            48.898962
          ],
          [
            2.4809488,
            48.8985519
          ],
          [
            2.4807215,
            48.8980736
          ],
          [
            2.4805894,
            48.8978038
          ],
          [
            2.48023,
            48.8970438
          ],
          [
            2.4801817,
            48.8969314
          ],
          [
            2.4801897,
            48.8968939
          ],
          [
            2.4801388,
            48.8967789
          ],
          [
            2.4800811,
            48.8967414
          ],
          [
            2.4799074,
            48.8963424
          ],
          [
            2.4798776,
            48.8962426
          ]
        ]
      },
      "id": "way/109578741"
    },
    {
      "type": "Feature",
      "properties": {
        "@id": "way/111352521",
        "highway": "cycleway"
      },
      "geometry": {
        "type": "LineString",
        "coordinates": [
          [
            2.4848792,
            48.9172917
          ],
          [
            2.4849018,
            48.9172873
          ],
          [
            2.4849673,
            48.9172745
          ],
          [
            2.4856781,
            48.9171359
          ],
          [
            2.4860194,
            48.9170669
          ],
          [
            2.4867187,
            48.9169358
          ],
          [
            2.4873717,
            48.9168057
          ],
          [
            2.4873825,
            48.9168036
          ],
          [
            2.488709,
            48.9165631
          ],
          [
            2.4894412,
            48.9164203
          ],
          [
            2.4897685,
            48.9163533
          ],
          [
            2.4900786,
            48.9162944
          ],
          [
            2.4901922,
            48.9162722
          ],
          [
            2.4907553,
            48.9161649
          ],
          [
            2.4908652,
            48.9161432
          ],
          [
            2.4920067,
            48.9159386
          ],
          [
            2.4920464,
            48.9159325
          ]
        ]
      },
      "id": "way/111352521"
    },
    {
      "type": "Feature",
      "properties": {
        "@id": "way/132104123",
        "bicycle": "designated",
        "foot": "designated",
        "footway": "sidewalk",
        "highway": "path",
        "lit": "yes",
        "segregated": "yes",
        "surface": "asphalt"
      },
      "geometry": {
        "type": "LineString",
        "coordinates": [
          [
            2.4858851,
            48.9049016
          ],
          [
            2.4884949,
            48.9067174
          ]
        ]
      },
      "id": "way/132104123"
    },
    {
      "type": "Feature",
      "properties": {
        "@id": "way/141089641",
        "highway": "cycleway",
        "horse": "no",
        "lit": "yes",
        "motor_vehicle": "no",
        "name": "Piste cyclable de l'Ourcq",
        "oneway": "no",
        "smoothness": "good",
        "surface": "asphalt"
      },
      "geometry": {
        "type": "LineString",
        "coordinates": [
          [
            2.490596,
            48.9091714
          ],
          [
            2.4903983,
            48.9091278
          ],
          [
            2.4898083,
            48.9090052
          ],
          [
            2.4885369,
            48.9087383
          ],
          [
            2.4870632,
            48.9084589
          ],
          [
            2.4869167,
            48.9084382
          ],
          [
            2.4868637,
            48.9084308
          ],
          [
            2.4857461,
            48.9081824
          ],
          [
            2.4843595,
            48.9078996
          ],
          [
            2.4842608,
            48.9078806
          ],
          [
            2.4806565,
            48.9071641
          ],
          [
            2.4804982,
            48.9071318
          ],
          [
            2.4801371,
            48.907058
          ],
          [
            2.4796652,
            48.9069547
          ],
          [
            2.4763167,
            48.9062757
          ],
          [
            2.4754865,
            48.9061074
          ],
          [
            2.4750465,
            48.9060079
          ]
        ]
      },
      "id": "way/141089641"
    },
    {
      "type": "Feature",
      "properties": {
        "@id": "way/141636950",
        "bicycle": "designated",
        "foot": "designated",
        "highway": "path",
        "segregated": "no"
      },
      "geometry": {
        "type": "LineString",
        "coordinates": [
          [
            2.4806469,
            48.9071365
          ],
          [
            2.4806565,
            48.9071641
          ]
        ]
      },
      "id": "way/141636950"
    },
    {
      "type": "Feature",
      "properties": {
        "@id": "way/200344496",
        "bicycle": "designated",
        "foot": "designated",
        "highway": "footway",
        "segregated": "no",
        "surface": "asphalt"
      },
      "geometry": {
        "type": "LineString",
        "coordinates": [
          [
            2.4808133,
            48.8941662
          ],
          [
            2.4808673,
            48.8941346
          ],
          [
            2.4809498,
            48.8941108
          ],
          [
            2.4822028,
            48.8939343
          ],
          [
            2.4825534,
            48.8938711
          ],
          [
            2.4829236,
            48.8937794
          ],
          [
            2.4836848,
            48.8936597
          ],
          [
            2.4847245,
            48.8935145
          ],
          [
            2.4858045,
            48.893452
          ],
          [
            2.4859441,
            48.8934131
          ],
          [
            2.4863665,
            48.8933779
          ],
          [
            2.4868778,
            48.8933138
          ],
          [
            2.4869441,
            48.8933039
          ],
          [
            2.4870009,
            48.8933103
          ],
          [
            2.4872172,
            48.8932837
          ],
          [
            2.4872515,
            48.8932865
          ],
          [
            2.4872844,
            48.8932891
          ],
          [
            2.4888023,
            48.8930691
          ],
          [
            2.4891074,
            48.8929757
          ],
          [
            2.4895875,
            48.8929056
          ],
          [
            2.4908348,
            48.8927232
          ],
          [
            2.4911472,
            48.8926829
          ],
          [
            2.4914443,
            48.8926552
          ],
          [
            2.4917863,
            48.8926305
          ],
          [
            2.4921007,
            48.8926199
          ],
          [
            2.4934807,
            48.8926089
          ],
          [
            2.493867,
            48.8925965
          ],
          [
            2.494213,
            48.8925754
          ],
          [
            2.4948051,
            48.8925317
          ]
        ]
      },
      "id": "way/200344496"
    },
    {
      "type": "Feature",
      "properties": {
        "@id": "way/244699694",
        "bicycle": "designated",
        "foot": "designated",
        "highway": "footway",
        "segregated": "no",
        "surface": "asphalt"
      },
      "geometry": {
        "type": "LineString",
        "coordinates": [
          [
            2.4948051,
            48.8925317
          ],
          [
            2.4951316,
            48.8924841
          ],
          [
            2.4954636,
            48.8924409
          ],
          [
            2.4958055,
            48.8923933
          ],
          [
            2.4962414,
            48.892332
          ],
          [
            2.4967162,
            48.8922985
          ],
          [
            2.4969797,
            48.8922839
          ],
          [
            2.4972727,
            48.8922782
          ],
          [
            2.497494,
            48.8922916
          ],
          [
            2.4975703,
            48.8922779
          ]
        ]
      },
      "id": "way/244699694"
    },
    {
      "type": "Feature",
      "properties": {
        "@id": "way/278787540",
        "foot": "no",
        "highway": "cycleway"
      },
      "geometry": {
        "type": "LineString",
        "coordinates": [
          [
            2.4802901,
            48.8936012
          ],
          [
            2.4819622,
            48.8933669
          ],
          [
            2.4830599,
            48.893221
          ],
          [
            2.4840872,
            48.893076
          ],
          [
            2.4845832,
            48.8930085
          ]
        ]
      },
      "id": "way/278787540"
    },
    {
      "type": "Feature",
      "properties": {
        "@id": "way/468419874",
        "highway": "cycleway"
      },
      "geometry": {
        "type": "LineString",
        "coordinates": [
          [
            2.4802377,
            48.8936085
          ],
          [
            2.480225,
            48.893575
          ]
        ]
      },
      "id": "way/468419874"
    },
    {
      "type": "Feature",
      "properties": {
        "@id": "way/468419881",
        "bicycle": "designated",
        "foot": "designated",
        "highway": "path",
        "segregated": "no"
      },
      "geometry": {
        "type": "LineString",
        "coordinates": [
          [
            2.4845832,
            48.8930085
          ],
          [
            2.4846246,
            48.8930021
          ],
          [
            2.4846595,
            48.8929973
          ],
          [
            2.4851753,
            48.8929139
          ],
          [
            2.485963,
            48.8927741
          ],
          [
            2.4860369,
            48.892761
          ]
        ]
      },
      "id": "way/468419881"
    },
    {
      "type": "Feature",
      "properties": {
        "@id": "way/555720722",
        "highway": "cycleway",
        "lit": "yes",
        "oneway": "yes",
        "surface": "asphalt"
      },
      "geometry": {
        "type": "LineString",
        "coordinates": [
          [
            2.4770607,
            48.9036789
          ],
          [
            2.4769503,
            48.9036933
          ],
          [
            2.4764151,
            48.9037607
          ],
          [
            2.4763273,
            48.9037718
          ],
          [
            2.4761097,
            48.9037999
          ],
          [
            2.4760342,
            48.9038102
          ],
          [
            2.4760054,
            48.9038141
          ],
          [
            2.4758224,
            48.9038361
          ],
          [
            2.4757592,
            48.9038349
          ],
          [
            2.4756373,
            48.9038366
          ]
        ]
      },
      "id": "way/555720722"
    },
    {
      "type": "Feature",
      "properties": {
        "@id": "way/555720723",
        "highway": "cycleway",
        "surface": "unhewn_cobblestone"
      },
      "geometry": {
        "type": "LineString",
        "coordinates": [
          [
            2.4759803,
            48.9037045
          ],
          [
            2.4759929,
            48.9037598
          ],
          [
            2.4760054,
            48.9038141
          ]
        ]
      },
      "id": "way/555720723"
    },
    {
      "type": "Feature",
      "properties": {
        "@id": "way/555720724",
        "highway": "cycleway",
        "oneway": "yes",
        "surface": "asphalt"
      },
      "geometry": {
        "type": "LineString",
        "coordinates": [
          [
            2.4732053,
            48.9042266
          ],
          [
            2.4732113,
            48.904198
          ],
          [
            2.4732812,
            48.9041777
          ],
          [
            2.473301,
            48.9041716
          ],
          [
            2.4733246,
            48.9041651
          ],
          [
            2.473731,
            48.9040891
          ],
          [
            2.4746607,
            48.9039102
          ],
          [
            2.4754664,
            48.9037566
          ],
          [
            2.4759803,
            48.9037045
          ],
          [
            2.4760091,
            48.903702
          ],
          [
            2.4762529,
            48.903681
          ],
          [
            2.4763922,
            48.903663
          ],
          [
            2.4765775,
            48.903639
          ],
          [
            2.4767371,
            48.9036144
          ],
          [
            2.4770522,
            48.9035655
          ],
          [
            2.4771572,
            48.9035512
          ],
          [
            2.4774445,
            48.9035121
          ],
          [
            2.4775095,
            48.9035095
          ],
          [
            2.4775947,
            48.9035276
          ],
          [
            2.4776175,
            48.9035611
          ]
        ]
      },
      "id": "way/555720724"
    },
    {
      "type": "Feature",
      "properties": {
        "@id": "way/561828294",
        "highway": "cycleway",
        "oneway": "yes"
      },
      "geometry": {
        "type": "LineString",
        "coordinates": [
          [
            2.4867183,
            48.9131819
          ],
          [
            2.4867571,
            48.9131346
          ],
          [
            2.4869347,
            48.9131604
          ],
          [
            2.487049,
            48.9131791
          ],
          [
            2.4875001,
            48.9132532
          ],
          [
            2.4880318,
            48.9133448
          ],
          [
            2.4887185,
            48.9134571
          ],
          [
            2.4888264,
            48.913474
          ],
          [
            2.4898926,
            48.9136582
          ],
          [
            2.4906369,
            48.9137807
          ],
          [
            2.4911848,
            48.9138737
          ],
          [
            2.4912465,
            48.9138635
          ],
          [
            2.4913879,
            48.9138878
          ],
          [
            2.4914403,
            48.9139213
          ],
          [
            2.491442,
            48.9139711
          ]
        ]
      },
      "id": "way/561828294"
    },
    {
      "type": "Feature",
      "properties": {
        "@id": "way/561834765",
        "highway": "cycleway",
        "oneway": "no"
      },
      "geometry": {
        "type": "LineString",
        "coordinates": [
          [
            2.4815972,
            48.9121099
          ],
          [
            2.4816066,
            48.9120664
          ],
          [
            2.4822718,
            48.9118668
          ],
          [
            2.4825869,
            48.9117746
          ],
          [
            2.4828049,
            48.91172
          ],
          [
            2.4828263,
            48.9117131
          ],
          [
            2.4837185,
            48.9114451
          ],
          [
            2.4838845,
            48.9113952
          ],
          [
            2.4839582,
            48.9113476
          ],
          [
            2.4843168,
            48.9112459
          ],
          [
            2.4844786,
            48.9112
          ],
          [
            2.4845262,
            48.9112083
          ],
          [
            2.4845412,
            48.9112246
          ],
          [
            2.4845595,
            48.9112574
          ]
        ]
      },
      "id": "way/561834765"
    },
    {
      "type": "Feature",
      "properties": {
        "@id": "way/561834780",
        "highway": "cycleway",
        "oneway": "no"
      },
      "geometry": {
        "type": "LineString",
        "coordinates": [
          [
            2.4844154,
            48.911278
          ],
          [
            2.484376,
            48.9113454
          ],
          [
            2.4840166,
            48.9114556
          ],
          [
            2.4839254,
            48.9114604
          ],
          [
            2.4829397,
            48.9117588
          ],
          [
            2.4828391,
            48.9118015
          ],
          [
            2.4827486,
            48.9117724
          ]
        ]
      },
      "id": "way/561834780"
    },
    {
      "type": "Feature",
      "properties": {
        "@id": "way/561838068",
        "foot": "yes",
        "highway": "cycleway",
        "oneway": "yes",
        "segregated": "yes"
      },
      "geometry": {
        "type": "LineString",
        "coordinates": [
          [
            2.4734986,
            48.9020979
          ],
          [
            2.4734627,
            48.9021942
          ],
          [
            2.4734178,
            48.9024441
          ],
          [
            2.4733789,
            48.902516
          ],
          [
            2.4733635,
            48.902553
          ],
          [
            2.4732797,
            48.9029775
          ],
          [
            2.4732748,
            48.9030085
          ],
          [
            2.4732555,
            48.9031304
          ],
          [
            2.4732569,
            48.9032318
          ],
          [
            2.4732321,
            48.9033455
          ],
          [
            2.4731972,
            48.9035174
          ],
          [
            2.4731751,
            48.903658
          ],
          [
            2.4731637,
            48.9038383
          ],
          [
            2.4731529,
            48.904116
          ],
          [
            2.4732812,
            48.9041777
          ]
        ]
      },
      "id": "way/561838068"
    },
    {
      "type": "Feature",
      "properties": {
        "@id": "way/561849380",
        "highway": "cycleway",
        "smoothness": "excellent",
        "surface": "asphalt"
      },
      "geometry": {
        "type": "LineString",
        "coordinates": [
          [
            2.4891033,
            48.8919821
          ],
          [
            2.4891148,
            48.8920199
          ],
          [
            2.4884959,
            48.8921592
          ],
          [
            2.4880037,
            48.8922756
          ],
          [
            2.4863441,
            48.8926922
          ],
          [
            2.4860369,
            48.892761
          ]
        ]
      },
      "id": "way/561849380"
    },
    {
      "type": "Feature",
      "properties": {
        "@id": "way/561850266",
        "highway": "cycleway"
      },
      "geometry": {
        "type": "LineString",
        "coordinates": [
          [
            2.4874523,
            48.8952491
          ],
          [
            2.4874025,
            48.8952683
          ],
          [
            2.4876027,
            48.895653
          ],
          [
            2.4876248,
            48.895675
          ],
          [
            2.4876543,
            48.8956882
          ],
          [
            2.4876992,
            48.8956975
          ],
          [
            2.4877408,
            48.8957015
          ],
          [
            2.4877784,
            48.8956949
          ],
          [
            2.4885079,
            48.8955736
          ],
          [
            2.4885857,
            48.8955675
          ],
          [
            2.4886065,
            48.8955697
          ],
          [
            2.4886172,
            48.8955794
          ],
          [
            2.4886695,
            48.8957085
          ],
          [
            2.4887599,
            48.8959072
          ],
          [
            2.4887882,
            48.8959695
          ],
          [
            2.4888448,
            48.8959591
          ],
          [
            2.4888868,
            48.895951
          ],
          [
            2.4891047,
            48.8965051
          ],
          [
            2.4892147,
            48.8968353
          ],
          [
            2.4892824,
            48.8969984
          ],
          [
            2.4892931,
            48.8970334
          ],
          [
            2.4893193,
            48.8971188
          ],
          [
            2.4894333,
            48.8974842
          ],
          [
            2.489495,
            48.89756
          ],
          [
            2.4895714,
            48.8976429
          ],
          [
            2.4896063,
            48.8977126
          ],
          [
            2.4897458,
            48.8981454
          ],
          [
            2.4896976,
            48.8981997
          ]
        ]
      },
      "id": "way/561850266"
    },
    {
      "type": "Feature",
      "properties": {
        "@id": "way/561851518",
        "highway": "cycleway"
      },
      "geometry": {
        "type": "LineString",
        "coordinates": [
          [
            2.4817682,
            48.9026676
          ],
          [
            2.4816803,
            48.902639
          ],
          [
            2.4815668,
            48.9026977
          ],
          [
            2.4812841,
            48.9028391
          ],
          [
            2.4810963,
            48.90294
          ],
          [
            2.4810776,
            48.9029673
          ]
        ]
      },
      "id": "way/561851518"
    },
    {
      "type": "Feature",
      "properties": {
        "@id": "way/745386823",
        "bicycle": "designated",
        "foot": "yes",
        "highway": "cycleway",
        "oneway": "no",
        "segregated": "yes",
        "source": "BDOrtho IGN"
      },
      "geometry": {
        "type": "LineString",
        "coordinates": [
          [
            2.4798776,
            48.8962426
          ],
          [
            2.4798065,
            48.8961701
          ],
          [
            2.479781,
            48.8961264
          ],
          [
            2.4795976,
            48.8958042
          ],
          [
            2.4791043,
            48.8949451
          ],
          [
            2.4790686,
            48.8948828
          ],
          [
            2.4789906,
            48.8948614
          ]
        ]
      },
      "id": "way/745386823"
    },
    {
      "type": "Feature",
      "properties": {
        "@id": "way/745386824",
        "bicycle": "designated",
        "foot": "yes",
        "highway": "cycleway",
        "oneway": "no",
        "segregated": "yes",
        "source": "BDOrtho IGN"
      },
      "geometry": {
        "type": "LineString",
        "coordinates": [
          [
            2.4825413,
            48.902084
          ],
          [
            2.4825829,
            48.9020474
          ],
          [
            2.4822121,
            48.9012544
          ],
          [
            2.4821776,
            48.9011805
          ],
          [
            2.4818286,
            48.9004319
          ],
          [
            2.4818453,
            48.9003993
          ],
          [
            2.4817917,
            48.9002882
          ],
          [
            2.4817427,
            48.9002675
          ],
          [
            2.4815822,
            48.8999136
          ],
          [
            2.4815558,
            48.8998319
          ]
        ]
      },
      "id": "way/745386824"
    },
    {
      "type": "Feature",
      "properties": {
        "@id": "way/935148333",
        "bicycle": "designated",
        "foot": "designated",
        "footway": "sidewalk",
        "highway": "path",
        "lit": "yes",
        "segregated": "yes",
        "surface": "asphalt"
      },
      "geometry": {
        "type": "LineString",
        "coordinates": [
          [
            2.4850834,
            48.9044289
          ],
          [
            2.4852093,
            48.9044369
          ],
          [
            2.4855024,
            48.9046382
          ],
          [
            2.4855931,
            48.9047005
          ],
          [
            2.4857039,
            48.9047766
          ]
        ]
      },
      "id": "way/935148333"
    },
    {
      "type": "Feature",
      "properties": {
        "@id": "way/935148334",
        "bicycle": "designated",
        "cycleway": "crossing",
        "foot": "designated",
        "footway": "crossing",
        "highway": "path",
        "lit": "yes",
        "segregated": "yes",
        "surface": "asphalt"
      },
      "geometry": {
        "type": "LineString",
        "coordinates": [
          [
            2.4857039,
            48.9047766
          ],
          [
            2.4857435,
            48.9048038
          ],
          [
            2.4858261,
            48.9048606
          ],
          [
            2.4858851,
            48.9049016
          ]
        ]
      },
      "id": "way/935148334"
    },
    {
      "type": "Feature",
      "properties": {
        "@id": "way/997410011",
        "highway": "cycleway",
        "oneway": "yes"
      },
      "geometry": {
        "type": "LineString",
        "coordinates": [
          [
            2.48016,
            48.908451
          ],
          [
            2.4802002,
            48.908463
          ],
          [
            2.4801545,
            48.9090368
          ],
          [
            2.480127,
            48.9093829
          ],
          [
            2.4801468,
            48.9098827
          ],
          [
            2.4802744,
            48.9103253
          ],
          [
            2.480883,
            48.9112161
          ],
          [
            2.4815128,
            48.9121378
          ],
          [
            2.4821731,
            48.9131644
          ],
          [
            2.4824183,
            48.9135126
          ],
          [
            2.4827444,
            48.9137693
          ],
          [
            2.4829204,
            48.9139078
          ],
          [
            2.4829801,
            48.9139547
          ],
          [
            2.4836677,
            48.9145084
          ],
          [
            2.4839285,
            48.9147808
          ],
          [
            2.4839638,
            48.9148482
          ],
          [
            2.4841335,
            48.9151726
          ],
          [
            2.4842898,
            48.9157984
          ],
          [
            2.4843363,
            48.9159847
          ],
          [
            2.4845354,
            48.9168529
          ],
          [
            2.4846346,
            48.9170035
          ],
          [
            2.4849018,
            48.9172873
          ]
        ]
      },
      "id": "way/997410011"
    },
    {
      "type": "Feature",
      "properties": {
        "@id": "way/1090958563",
        "bicycle": "designated",
        "foot": "designated",
        "highway": "path",
        "oneway": "yes",
        "path": "crossing",
        "segregated": "no"
      },
      "geometry": {
        "type": "LineString",
        "coordinates": [
          [
            2.4976291,
            48.8921442
          ],
          [
            2.4977149,
            48.8921303
          ]
        ]
      },
      "id": "way/1090958563"
    },
    {
      "type": "Feature",
      "properties": {
        "@id": "way/1117838446",
        "highway": "cycleway",
        "oneway": "yes"
      },
      "geometry": {
        "type": "LineString",
        "coordinates": [
          [
            2.4976412,
            48.8922806
          ],
          [
            2.4975703,
            48.8922779
          ]
        ]
      },
      "id": "way/1117838446"
    },
    {
      "type": "Feature",
      "properties": {
        "@id": "way/1117838447",
        "cycleway": "crossing",
        "highway": "cycleway",
        "oneway": "yes"
      },
      "geometry": {
        "type": "LineString",
        "coordinates": [
          [
            2.4977719,
            48.8922848
          ],
          [
            2.4976995,
            48.8922824
          ],
          [
            2.4976412,
            48.8922806
          ]
        ]
      },
      "id": "way/1117838447"
    },
    {
      "type": "Feature",
      "properties": {
        "@id": "way/1151094606",
        "bicycle": "yes",
        "foot": "no",
        "highway": "cycleway",
        "lit": "yes",
        "oneway": "yes",
        "surface": "asphalt"
      },
      "geometry": {
        "type": "LineString",
        "coordinates": [
          [
            2.4773742,
            48.9182433
          ],
          [
            2.4773827,
            48.918319
          ],
          [
            2.4773648,
            48.9183758
          ],
          [
            2.4773269,
            48.918428
          ],
          [
            2.4772893,
            48.9184605
          ],
          [
            2.4772471,
            48.9184867
          ],
          [
            2.477174,
            48.9185169
          ],
          [
            2.4770974,
            48.9185342
          ],
          [
            2.4770129,
            48.9185402
          ],
          [
            2.4769496,
            48.9185361
          ],
          [
            2.4768709,
            48.9185204
          ],
          [
            2.4768299,
            48.9185067
          ],
          [
            2.4767517,
            48.9184661
          ],
          [
            2.4767057,
            48.9184275
          ],
          [
            2.4766723,
            48.9183832
          ],
          [
            2.47665,
            48.9183163
          ],
          [
            2.4766511,
            48.9182727
          ],
          [
            2.4766746,
            48.9182102
          ],
          [
            2.4767299,
            48.9181475
          ],
          [
            2.4767904,
            48.9181083
          ],
          [
            2.4768555,
            48.9180816
          ],
          [
            2.4769358,
            48.9180631
          ],
          [
            2.4770443,
            48.9180579
          ],
          [
            2.4771222,
            48.9180674
          ],
          [
            2.4771611,
            48.9180767
          ],
          [
            2.4772333,
            48.9181037
          ],
          [
            2.4772908,
            48.9181379
          ],
          [
            2.4773269,
            48.9181693
          ],
          [
            2.4773559,
            48.9182061
          ],
          [
            2.4773742,
            48.9182433
          ]
        ]
      },
      "id": "way/1151094606"
    },
    {
      "type": "Feature",
      "properties": {
        "@id": "way/1265174484",
        "bicycle": "designated",
        "highway": "cycleway"
      },
      "geometry": {
        "type": "LineString",
        "coordinates": [
          [
            2.4790686,
            48.8948828
          ],
          [
            2.4790874,
            48.8948719
          ],
          [
            2.4791583,
            48.8948616
          ],
          [
            2.4801811,
            48.8947148
          ],
          [
            2.4802739,
            48.8947372
          ]
        ]
      },
      "id": "way/1265174484"
    },
    {
      "type": "Feature",
      "properties": {
        "@id": "way/1391616262",
        "highway": "cycleway"
      },
      "geometry": {
        "type": "LineString",
        "coordinates": [
          [
            2.4890278,
            48.9014004
          ],
          [
            2.4889762,
            48.9013303
          ],
          [
            2.4881562,
            48.8998918
          ],
          [
            2.4873719,
            48.8985158
          ]
        ]
      },
      "id": "way/1391616262"
    }
  ]
}